STARLINK-5424           
1 54811U 22175BF  26068.25888170  .00012095  00000+0  77622-3 0  9990
2 54811  53.2194  26.1027 0001276  93.2399 266.8740 15.08863318180133
SEDNA-2                 
1 63153U 25009DQ  26068.79893845  .00008085  00000+0  49393-3 0  9990
2 63153  97.4615 144.8075 0010309  53.0260 307.1912 15.10492622 63116
